STARLINK-6047           
1 56460U 23064N   26068.59743414  .00004451  00000+0  38024-3 0  9998
2 56460  70.0007 144.6354 0002750 267.1203  92.9641 14.98369007155233
LEMUR-2-LIA-MARTIN      
1 63248U 25052AQ  26068.70341042  .00006911  00000+0  60828-3 0  9993
2 63248  97.6996 322.6614 0003817 139.7155 220.4350 14.96805944 53795
